     2              NAVIGATION DATA                         RINEX VERSION / TYPE
CCRINEXN V1.6.0 UX  CDDIS               12-JAN-19 00:31     PGM / RUN BY / DATE 
IGS BROADCAST EPHEMERIS FILE                                COMMENT             
    0.7451D-08 -0.1490D-07 -0.5960D-07  0.1192D-06          ION ALPHA           
    0.9011D+05 -0.6554D+05 -0.1311D+06  0.4588D+06          ION BETA            
   -0.931322574615D-09-0.177635683940D-14    61440     2036 DELTA-UTC: A0,A1,T,W
    18                                                      LEAP SECONDS        
                                                            END OF HEADER       
 7 19  1 11  2  0  0.0 0.539799220860D-04-0.704858393874D-11 0.000000000000D+00
    0.690000000000D+02-0.125000000000D+01 0.490234697281D-08-0.118247148133D+01
    0.167638063431D-07 0.121397034964D-01 0.576302409172D-05 0.515361240387D+04
    0.439200000000D+06 0.283122062683D-06 0.267673666199D+01 0.223517417908D-07
    0.956599327619D+00 0.261500000000D+03-0.247999320997D+01-0.819605538993D-08
   -0.136077094037D-09 0.100000000000D+01 0.203500000000D+04 0.000000000000D+00
    0.200000000000D+01 0.000000000000D+00-0.111758708954D-07 0.690000000000D+02
    0.432030000000D+06 0.000000000000D+00 0.000000000000D+00 0.000000000000D+00
 8 19  1 11  2  0  0.0-0.128644984216D-03-0.136424205266D-11 0.000000000000D+00
    0.680000000000D+02 0.742500000000D+02 0.442554126678D-08 0.199449881191D+01
    0.406615436077D-05 0.410114601254D-02 0.562891364098D-05 0.515368191147D+04
    0.439200000000D+06 0.707805156708D-07-0.154156418363D+01 0.726431608200D-07
    0.969846046438D+00 0.274000000000D+03-0.386701537431D+00-0.811783795740D-08
    0.111076058074D-09 0.100000000000D+01 0.203500000000D+04 0.000000000000D+00
    0.280000000000D+01 0.000000000000D+00 0.512227416039D-08 0.680000000000D+02
    0.432030000000D+06 0.000000000000D+00 0.000000000000D+00 0.000000000000D+00
 9 19  1 11  2  0  0.0 0.473192427307D-03-0.454747350886D-11 0.000000000000D+00
    0.102000000000D+03 0.297187500000D+02 0.470555328036D-08 0.202455077729D+01
    0.153854489327D-05 0.148044235539D-02 0.845454633236D-05 0.515375434112D+04
    0.439200000000D+06 0.447034835815D-07 0.159980093061D+01 0.428408384323D-07
    0.952103458519D+00 0.210937500000D+03 0.169769787095D+01-0.808497979676D-08
    0.439304009836D-09 0.100000000000D+01 0.203500000000D+04 0.000000000000D+00
    0.280000000000D+01 0.000000000000D+00 0.139698386192D-08 0.102000000000D+03
    0.432030000000D+06 0.000000000000D+00 0.000000000000D+00 0.000000000000D+00
10 19  1 11  2  0  0.0 0.137646216899D-03-0.636646291241D-11 0.000000000000D+00
    0.150000000000D+02-0.705000000000D+02 0.417695970142D-08-0.254702581627D+01
   -0.370480120182D-05 0.421700056177D-02 0.992789864540D-05 0.515366925812D+04
    0.439200000000D+06-0.353902578354D-07 0.563721388093D+00-0.149011611938D-07
    0.962448393016D+00 0.190437500000D+03-0.279015862442D+01-0.778139555493D-08
    0.692886004340D-10 0.100000000000D+01 0.203500000000D+04 0.000000000000D+00
    0.200000000000D+01 0.000000000000D+00 0.186264514923D-08 0.150000000000D+02
    0.432018000000D+06 0.400000000000D+01 0.000000000000D+00 0.000000000000D+00
11 19  1 11  2  0  0.0-0.677009578794D-03 0.522959453519D-11 0.000000000000D+00
    0.730000000000D+02 0.762500000000D+01 0.609418249198D-08-0.123429362659D+01
    0.644475221634D-06 0.166198773077D-01 0.265613198280D-05 0.515367784119D+04
    0.439200000000D+06-0.312924385071D-06-0.917178012694D+00 0.121071934700D-06
    0.907955737624D+00 0.301718750000D+03 0.185435411261D+01-0.923145559995D-08
    0.589310267252D-10 0.100000000000D+01 0.203500000000D+04 0.000000000000D+00
    0.200000000000D+01 0.000000000000D+00-0.121071934700D-07 0.730000000000D+02
    0.432030000000D+06 0.000000000000D+00 0.000000000000D+00 0.000000000000D+00
13 19  1 11  2  0  0.0-0.787242315710D-04 0.125055521494D-11 0.000000000000D+00
    0.590000000000D+02 0.238750000000D+02 0.446554315065D-08 0.502349851973D+00
    0.117905437946D-05 0.373263435904D-02 0.811554491520D-05 0.515366464424D+04
    0.439200000000D+06-0.186264514923D-08 0.173501019928D+01-0.558793544769D-08
    0.967635637200D+00 0.225687500000D+03 0.138854127457D+01-0.802497712965D-08
    0.385730352932D-09 0.100000000000D+01 0.203500000000D+04 0.000000000000D+00
    0.200000000000D+01 0.000000000000D+00-0.111758708954D-07 0.590000000000D+02
    0.433050000000D+06 0.400000000000D+01 0.000000000000D+00 0.000000000000D+00
14 19  1 11  2  0  0.0-0.933455303311D-04 0.568434188608D-12 0.000000000000D+00
    0.270000000000D+02 0.239062500000D+02 0.461733518769D-08 0.138567879008D+01
    0.124797224998D-05 0.100388695719D-01 0.793859362602D-05 0.515366085052D+04
    0.439200000000D+06-0.270083546638D-06 0.169152734686D+01-0.894069671631D-07
    0.960202553365D+00 0.225500000000D+03-0.194931991078D+01-0.816212569958D-08
    0.374301305437D-09 0.100000000000D+01 0.203500000000D+04 0.000000000000D+00
    0.200000000000D+01 0.000000000000D+00-0.977888703346D-08 0.270000000000D+02
    0.432018000000D+06 0.400000000000D+01 0.000000000000D+00 0.000000000000D+00
15 19  1 11  2  0  0.0-0.332738738507D-03 0.159161572810D-11 0.000000000000D+00
    0.100000000000D+03 0.201875000000D+02 0.531200698070D-08 0.733105695835D+00
    0.122003257275D-05 0.111739486456D-01 0.869296491146D-05 0.515362004471D+04
    0.439200000000D+06-0.106170773506D-06 0.152323293357D+01 0.113621354103D-06
    0.927644147028D+00 0.195218750000D+03 0.755532145141D+00-0.847856745208D-08
    0.293583657509D-09 0.100000000000D+01 0.203500000000D+04 0.000000000000D+00
    0.280000000000D+01 0.000000000000D+00-0.111758708954D-07 0.100000000000D+03
    0.432018000000D+06 0.400000000000D+01 0.000000000000D+00 0.000000000000D+00
16 19  1 11  2  0  0.0-0.119851902127D-04-0.227373675443D-11 0.000000000000D+00
    0.460000000000D+02 0.347812500000D+02 0.384265996800D-08 0.254444921523D+01
    0.175647437573D-05 0.104100607568D-01 0.100992619991D-04 0.515376319313D+04
    0.439200000000D+06-0.150874257088D-06-0.249067056334D+01-0.106170773506D-06
    0.984960845813D+00 0.198406250000D+03 0.525130359639D+00-0.750817008566D-08
   -0.177864556417D-09 0.100000000000D+01 0.203500000000D+04 0.000000000000D+00
    0.200000000000D+01 0.000000000000D+00-0.107102096081D-07 0.460000000000D+02
    0.432030000000D+06 0.000000000000D+00 0.000000000000D+00 0.000000000000D+00
17 19  1 11  2  0  0.0-0.644614920020D-05 0.522959453519D-11 0.000000000000D+00
    0.450000000000D+02 0.698750000000D+02 0.408588451961D-08 0.160220144020D+01
    0.330060720444D-05 0.130079118535D-01 0.627525150776D-05 0.515367507744D+04
    0.439200000000D+06-0.670552253723D-07-0.147589363452D+01-0.318512320519D-06
    0.983516726231D+00 0.270656250000D+03-0.173589257880D+01-0.796961785454D-08
    0.203222744188D-09 0.100000000000D+01 0.203500000000D+04 0.000000000000D+00
    0.200000000000D+01 0.000000000000D+00-0.111758708954D-07 0.450000000000D+02
    0.438900000000D+06 0.000000000000D+00 0.000000000000D+00 0.000000000000D+00
18 19  1 11  2  0  0.0 0.145602971315D-04 0.375166564481D-11 0.000000000000D+00
    0.103000000000D+03-0.463125000000D+02 0.504663866252D-08-0.761834608349D+00
   -0.226125121117D-05 0.149788059061D-01 0.348128378391D-05 0.515360396576D+04
    0.439200000000D+06-0.150874257088D-06-0.527320327523D+00 0.162050127983D-06
    0.952610048032D+00 0.308281250000D+03 0.136866629483D+01-0.873572059135D-08
   -0.130362567963D-09 0.100000000000D+01 0.203500000000D+04 0.000000000000D+00
    0.200000000000D+01 0.000000000000D+00-0.651925802231D-08 0.103000000000D+03
    0.432030000000D+06 0.000000000000D+00 0.000000000000D+00 0.000000000000D+00
19 19  1 11  2  0  0.0-0.364633742720D-03 0.397903932026D-11 0.000000000000D+00
    0.810000000000D+02 0.746875000000D+02 0.412910061698D-08-0.189860293870D+01
    0.397115945816D-05 0.938393594697D-02 0.558793544769D-05 0.515361807632D+04
    0.439200000000D+06 0.176951289177D-06-0.142934353881D+01 0.763684511185D-07
    0.981229445036D+00 0.280562500000D+03 0.133197375661D+01-0.790782905824D-08
    0.255367782476D-09 0.100000000000D+01 0.203500000000D+04 0.000000000000D+00
    0.200000000000D+01 0.000000000000D+00-0.153668224812D-07 0.810000000000D+02
    0.432000000000D+06 0.000000000000D+00 0.000000000000D+00 0.000000000000D+00
20 19  1 11  2  0  0.0 0.520985107869D-03 0.454747350886D-12 0.000000000000D+00
    0.720000000000D+02-0.830937500000D+02 0.495806366611D-08-0.811817883130D+00
   -0.434182584286D-05 0.447206548415D-02 0.886060297489D-05 0.515367452049D+04
    0.439200000000D+06-0.160187482834D-06 0.449906232789D+00-0.167638063431D-07
    0.930057265510D+00 0.194781250000D+03 0.223859242661D+01-0.824605776712D-08
    0.128576784311D-10 0.100000000000D+01 0.203500000000D+04 0.000000000000D+00
    0.200000000000D+01 0.000000000000D+00-0.838190317154D-08 0.720000000000D+02
    0.432018000000D+06 0.400000000000D+01 0.000000000000D+00 0.000000000000D+00
21 19  1 11  2  0  0.0-0.271331518889D-03 0.693489710102D-11 0.000000000000D+00
    0.150000000000D+02-0.394687500000D+02 0.475519807309D-08-0.228468522437D+01
   -0.180304050446D-05 0.247069920879D-01 0.233389437199D-05 0.515355617523D+04
    0.439200000000D+06 0.309199094772D-06-0.535696933539D+00 0.184401869774D-06
    0.946906755107D+00 0.320625000000D+03-0.149497269612D+01-0.802533428739D-08
   -0.339299847486D-10 0.100000000000D+01 0.203500000000D+04 0.000000000000D+00
    0.200000000000D+01 0.000000000000D+00-0.977888703346D-08 0.150000000000D+02
    0.432018000000D+06 0.400000000000D+01 0.000000000000D+00 0.000000000000D+00
